{
  "type": "FeatureCollection",
  "features": [
    {
      "type": "Feature",
      "properties": {
        "norad_id": 30662,
        "name": "FENGYUN 1C DEB",
        "group": "fengyun-1c-debris",
        "lat": -49.29494820389808,
        "lon": 44.6688760759216,
        "alt_km": 801.7126092975905,
        "timestamp": "2025-12-03T22:42:32.912835+00:00",
        "meta_object_name": "FENGYUN 1C DEB",
        "meta_object_id": "1999-025APU",
        "meta_epoch": "2025-12-03T02:48:18.846720",
        "meta_mean_motion": 14.22256685,
        "meta_eccentricity": 0.00325542,
        "meta_inclination": 99.0531,
        "meta_ra_of_asc_node": 33.1374,
        "meta_arg_of_pericenter": 299.1565,
        "meta_mean_anomaly": 86.7895,
        "meta_ephemeris_type": 0,
        "meta_classification_type": "U",
        "meta_norad_cat_id": 30662,
        "meta_element_set_no": 999,
        "meta_rev_at_epoch": 96502,
        "meta_bstar": 0.0019182856,
        "meta_mean_motion_dot": 4.237e-05,
        "meta_mean_motion_ddot": 0,
        "tle_line1": "1 30662U 99025APU 25337.11688480  .00004237  00000+0  19183-2 0  9997",
        "tle_line2": "2 30662  99.0531  33.1374 0032554 299.1565  86.7895 14.22256685965029"
      },
      "geometry": {
        "type": "Point",
        "coordinates": [
          44.6688760759216,
          -49.29494820389808
        ]
      }
    },
    {
      "type": "Feature",
      "properties": {
        "norad_id": 30663,
        "name": "FENGYUN 1C DEB",
        "group": "fengyun-1c-debris",
        "lat": 71.61528414568882,
        "lon": -133.75237714934508,
        "alt_km": 1082.9896847431783,
        "timestamp": "2025-12-03T22:42:32.912844+00:00",
        "meta_object_name": "FENGYUN 1C DEB",
        "meta_object_id": "1999-025APV",
        "meta_epoch": "2025-12-03T05:58:44.450976",
        "meta_mean_motion": 13.23082031,
        "meta_eccentricity": 0.0647478,
        "meta_inclination": 99.3023,
        "meta_ra_of_asc_node": 255.1673,
        "meta_arg_of_pericenter": 159.6931,
        "meta_mean_anomaly": 203.1261,
        "meta_ephemeris_type": 0,
        "meta_classification_type": "U",
        "meta_norad_cat_id": 30663,
        "meta_element_set_no": 999,
        "meta_rev_at_epoch": 88922,
        "meta_bstar": 0.0017653,
        "meta_mean_motion_dot": 2.262e-05,
        "meta_mean_motion_ddot": 0,
        "tle_line1": "1 30663U 99025APV 25337.24912559  .00002262  00000+0  17653-2 0  9995",
        "tle_line2": "2 30663  99.3023 255.1673 0647478 159.6931 203.1261 13.23082031889222"
      },
      "geometry": {
        "type": "Point",
        "coordinates": [
          -133.75237714934508,
          71.61528414568882
        ]
      }
    },
    {
      "type": "Feature",
      "properties": {
        "norad_id": 30665,
        "name": "FENGYUN 1C DEB",
        "group": "fengyun-1c-debris",
        "lat": -13.141247572826074,
        "lon": -48.522042108064284,
        "alt_km": 879.6686403978247,
        "timestamp": "2025-12-03T22:42:32.912862+00:00",
        "meta_object_name": "FENGYUN 1C DEB",
        "meta_object_id": "1999-025APX",
        "meta_epoch": "2025-12-03T09:53:30.922944",
        "meta_mean_motion": 14.12252026,
        "meta_eccentricity": 0.0067834,
        "meta_inclination": 99.2075,
        "meta_ra_of_asc_node": 308.7594,
        "meta_arg_of_pericenter": 229.2259,
        "meta_mean_anomaly": 283.2134,
        "meta_ephemeris_type": 0,
        "meta_classification_type": "U",
        "meta_norad_cat_id": 30665,
        "meta_element_set_no": 999,
        "meta_rev_at_epoch": 95838,
        "meta_bstar": 0.0022359,
        "meta_mean_motion_dot": 4.157e-05,
        "meta_mean_motion_ddot": 0,
        "tle_line1": "1 30665U 99025APX 25337.41216346  .00004157  00000+0  22359-2 0  9991",
        "tle_line2": "2 30665  99.2075 308.7594 0067834 229.2259 283.2134 14.12252026958380"
      },
      "geometry": {
        "type": "Point",
        "coordinates": [
          -48.522042108064284,
          -13.141247572826074
        ]
      }
    },
    {
      "type": "Feature",
      "properties": {
        "norad_id": 30666,
        "name": "FENGYUN 1C DEB",
        "group": "fengyun-1c-debris",
        "lat": 73.0854073432148,
        "lon": 172.55055224628714,
        "alt_km": 858.2802069617019,
        "timestamp": "2025-12-03T22:42:32.912871+00:00",
        "meta_object_name": "FENGYUN 1C DEB",
        "meta_object_id": "1999-025APY",
        "meta_epoch": "2025-12-03T12:32:51.222912",
        "meta_mean_motion": 14.02546737,
        "meta_eccentricity": 0.0060695,
        "meta_inclination": 98.8224,
        "meta_ra_of_asc_node": 321.4298,
        "meta_arg_of_pericenter": 169.4617,
        "meta_mean_anomaly": 318.9878,
        "meta_ephemeris_type": 0,
        "meta_classification_type": "U",
        "meta_norad_cat_id": 30666,
        "meta_element_set_no": 999,
        "meta_rev_at_epoch": 95981,
        "meta_bstar": 0.00021729,
        "meta_mean_motion_dot": 2.98e-06,
        "meta_mean_motion_ddot": 0,
        "tle_line1": "1 30666U 99025APY 25337.52281508  .00000298  00000+0  21729-3 0  9999",
        "tle_line2": "2 30666  98.8224 321.4298 0060695 169.4617 318.9878 14.02546737959810"
      },
      "geometry": {
        "type": "Point",
        "coordinates": [
          172.55055224628714,
          73.0854073432148
        ]
      }
    },
    {
      "type": "Feature",
      "properties": {
        "norad_id": 30668,
        "name": "FENGYUN 1C DEB",
        "group": "fengyun-1c-debris",
        "lat": 75.43364507693919,
        "lon": 12.595023173389988,
        "alt_km": 899.9719491417327,
        "timestamp": "2025-12-03T22:42:32.912880+00:00",
        "meta_object_name": "FENGYUN 1C DEB",
        "meta_object_id": "1999-025AQA",
        "meta_epoch": "2025-12-03T03:46:19.506144",
        "meta_mean_motion": 14.12223902,
        "meta_eccentricity": 0.00784298,
        "meta_inclination": 99.1324,
        "meta_ra_of_asc_node": 50.0364,
        "meta_arg_of_pericenter": 272.9786,
        "meta_mean_anomaly": 116.1609,
        "meta_ephemeris_type": 0,
        "meta_classification_type": "U",
        "meta_norad_cat_id": 30668,
        "meta_element_set_no": 999,
        "meta_rev_at_epoch": 95920,
        "meta_bstar": 0.0023512126,
        "meta_mean_motion_dot": 4.404e-05,
        "meta_mean_motion_ddot": 0,
        "tle_line1": "1 30668U 99025AQA 25337.15717021  .00004404  00000+0  23512-2 0  9998",
        "tle_line2": "2 30668  99.1324  50.0364 0078429 272.9786 116.1609 14.12223902959207"
      },
      "geometry": {
        "type": "Point",
        "coordinates": [
          12.595023173389988,
          75.43364507693919
        ]
      }
    },
    {
      "type": "Feature",
      "properties": {
        "norad_id": 30669,
        "name": "FENGYUN 1C DEB",
        "group": "fengyun-1c-debris",
        "lat": 74.1695034435264,
        "lon": -117.33338304883247,
        "alt_km": 925.5664603540909,
        "timestamp": "2025-12-03T22:42:32.912889+00:00",
        "meta_object_name": "FENGYUN 1C DEB",
        "meta_object_id": "1999-025AQB",
        "meta_epoch": "2025-12-03T07:39:27.780192",
        "meta_mean_motion": 14.02671231,
        "meta_eccentricity": 0.0117462,
        "meta_inclination": 98.634,
        "meta_ra_of_asc_node": 274.4734,
        "meta_arg_of_pericenter": 203.3551,
        "meta_mean_anomaly": 309.3885,
        "meta_ephemeris_type": 0,
        "meta_classification_type": "U",
        "meta_norad_cat_id": 30669,
        "meta_element_set_no": 999,
        "meta_rev_at_epoch": 95321,
        "meta_bstar": 0.0015317,
        "meta_mean_motion_dot": 2.471e-05,
        "meta_mean_motion_ddot": 0,
        "tle_line1": "1 30669U 99025AQB 25337.31907153  .00002471  00000+0  15317-2 0  9990",
        "tle_line2": "2 30669  98.6340 274.4734 0117462 203.3551 309.3885 14.02671231953210"
      },
      "geometry": {
        "type": "Point",
        "coordinates": [
          -117.33338304883247,
          74.1695034435264
        ]
      }
    },
    {
      "type": "Feature",
      "properties": {
        "norad_id": 30670,
        "name": "FENGYUN 1C DEB",
        "group": "fengyun-1c-debris",
        "lat": -52.674473737304524,
        "lon": 34.174130614960156,
        "alt_km": 870.8475206804042,
        "timestamp": "2025-12-03T22:42:32.912898+00:00",
        "meta_object_name": "FENGYUN 1C DEB",
        "meta_object_id": "1999-025AQC",
        "meta_epoch": "2025-12-03T01:12:33.073920",
        "meta_mean_motion": 14.15811335,
        "meta_eccentricity": 0.00400183,
        "meta_inclination": 98.7123,
        "meta_ra_of_asc_node": 21.6971,
        "meta_arg_of_pericenter": 96.6847,
        "meta_mean_anomaly": 326.6549,
        "meta_ephemeris_type": 0,
        "meta_classification_type": "U",
        "meta_norad_cat_id": 30670,
        "meta_element_set_no": 999,
        "meta_rev_at_epoch": 97015,
        "meta_bstar": 0.00012540514,
        "meta_mean_motion_dot": 2.06e-06,
        "meta_mean_motion_ddot": 0,
        "tle_line1": "1 30670U 99025AQC 25337.05038280  .00000206  00000+0  12541-3 0  9990",
        "tle_line2": "2 30670  98.7123  21.6971 0040018  96.6847 326.6549 14.15811335970156"
      },
      "geometry": {
        "type": "Point",
        "coordinates": [
          34.174130614960156,
          -52.674473737304524
        ]
      }
    }
  ]
}